NORAD_CAT_ID,OBJECT_NAME,OBJECT_TYPE,EPOCH,MEAN_MOTION,ECCENTRICITY,INCLINATION,RA_OF_ASC_NODE,ARG_OF_PERICENTER,MEAN_ANOMALY,BSTAR,MEAN_MOTION_DOT,MEAN_MOTION_DDOT,TLE_LINE0,TLE_LINE1,TLE_LINE2,SEMIMAJOR_AXIS,PERIOD,APOGEE,PERIGEE,DECAYED
52868.0,STARLINK-4261,PAYLOAD,2022-08-17 14:00:01,15.49872963,0.0001179,53.2163,103.8805,67.872,43.207,0.00078389,0.00044271,0.0,0 STARLINK-4261,1 52868U 22062AQ  22229.58334491  .00044271  00000-0  78389-3 0  9991,2 52868  53.2163 103.8805 0001179  67.8720  43.2070 15.49872963  1308,6795.234,92.911,417.901,416.298,0.0
52868.0,STARLINK-4261,PAYLOAD,2022-08-18 14:00:01,15.49879806,0.0001193,53.2165,99.1035,71.4448,222.4317,0.0015106,0.00086217,0.0,0 STARLINK-4261,1 52868U 22062AQ  22230.58334491  .00086217  00000-0  15106-2 0  9996,2 52868  53.2165  99.1035 0001193  71.4448 222.4317 15.49879806  1304,6795.214,92.91,417.89,416.269,0.0
52868.0,STARLINK-4261,PAYLOAD,2022-08-18 22:00:00,15.50176877,0.0001199999999999,53.2171,97.5165,54.1745,300.5855,-0.0041856,-0.00233465,0.0,0 STARLINK-4261,1 52868U 22062AQ  22230.91667824 -.00233465  00000-0 -41856-2 0  9994,2 52868  53.2171  97.5165 0001200  54.1745 300.5855 15.50176877  1309,6794.346,92.893,417.027,415.396,0.0
52868.0,STARLINK-4261,PAYLOAD,2022-08-19 14:00:01,15.49963265,0.0001268,53.217,94.3216,69.2927,47.511,-0.00026984,-0.00015778,0.0,0 STARLINK-4261,1 52868U 22062AQ  22231.58334491 -.00015778  00000-0 -26984-3 0  9990,2 52868  53.2170  94.3216 0001268  69.2927  47.5110 15.49963265  1308,6794.97,92.905,417.697,415.974,0.0
52868.0,STARLINK-4261,PAYLOAD,2022-08-19 16:00:00,15.49989958,0.0001304,53.2172,93.9238,70.5069,151.5393,-0.0014313,-0.00081149,0.0,0 STARLINK-4261,1 52868U 22062AQ  22231.66667824 -.00081149  00000-0 -14313-2 0  9995,2 52868  53.2172  93.9238 0001304  70.5069 151.5393 15.49989958 10421,6794.892,92.904,417.643,415.871,0.0
52868.0,STARLINK-4261,PAYLOAD,2022-08-19 22:00:00,15.49917021,0.0001508,53.2171,92.7304,61.8016,116.0072,-0.00036435,-0.00021098,0.0,0 STARLINK-4261,1 52868U 22062AQ  22231.91667824 -.00021098  00000-0 -36435-3 0  9990,2 52868  53.2171  92.7304 0001508  61.8016 116.0072 15.49917021  1301,6795.106,92.908,417.995,415.946,0.0
52868.0,STARLINK-4261,PAYLOAD,2022-08-20 08:00:01,15.50086304,0.0001325,53.2173,90.7426,58.1719,285.7753,-0.0086712,-0.00467641,0.0,0 STARLINK-4261,1 52868U 22062AQ  22232.33334491 -.00467641  00000-0 -86712-2 0  9998,2 52868  53.2173  90.7426 0001325  58.1719 285.7753 15.50086304 10529,6794.611,92.898,417.376,415.576,0.0
52868.0,STARLINK-4261,PAYLOAD,2022-08-20 14:00:01,15.4983524,0.0001375999999999,53.2173,89.5507,67.2827,232.4295,-0.0097663,-0.00518628,0.0,0 STARLINK-4261,1 52868U 22062AQ  22232.58334491 -.00518628  00000-0 -97663-2 0  9994,2 52868  53.2173  89.5507 0001376  67.2827 232.4295 15.49835240  1307,6795.345,92.913,418.145,416.275,0.0
52868.0,STARLINK-4261,PAYLOAD,2022-08-20 22:00:00,15.49534832,0.000131,53.2176,87.9653,52.0489,308.2968,-0.0208719999999999,-0.0106202,0.0,0 STARLINK-4261,1 52868U 22062AQ  22232.91667824 -.01062020  00000-0 -20872-1 0  9998,2 52868  53.2176  87.9653 0001310  52.0489 308.2968 15.49534832  1311,6796.223000000001,92.931,418.978,417.198,0.0
52868.0,STARLINK-4261,PAYLOAD,2022-08-21 14:00:01,15.48013086,0.0001376999999999,53.2177,84.7878,58.9814,60.5022,-0.021901,-0.01056589,0.0,0 STARLINK-4261,1 52868U 22062AQ  22233.58334491 -.01056589  00000-0 -21901-1 0  9990,2 52868  53.2177  84.7878 0001377  58.9814  60.5022 15.48013086  1306,6800.676,93.022,423.478,421.605,0.0
52868.0,STARLINK-4261,PAYLOAD,2022-08-21 22:00:00,15.47254015,0.0001558,53.2175,83.205,53.0508,124.6306,-0.022508,-0.01057341,0.0,0 STARLINK-4261,1 52868U 22062AQ  22233.91667824 -.01057341  00000-0 -22508-1 0  9997,2 52868  53.2175  83.2050 0001558  53.0508 124.6306 15.47254015 10762,6802.9,93.068,425.825,423.705,0.0
52868.0,STARLINK-4261,PAYLOAD,2022-08-22 12:00:00,15.45925312,0.0001416999999999,53.2173,80.4335,61.3654,125.9694,-0.023607,-0.01058694,0.0,0 STARLINK-4261,1 52868U 22062AQ  22234.50001157 -.01058694  00000-0 -23607-1 0  9997,2 52868  53.2173  80.4335 0001417  61.3654 125.9694 15.45925312  1300,6806.7980000000025,93.148,429.627,427.698,0.0
52868.0,STARLINK-4261,PAYLOAD,2022-08-22 22:00:00,15.44977028,0.0001353,53.2175,78.461,50.8259,295.9757,-0.024416,-0.0105961,0.0,0 STARLINK-4261,1 52868U 22062AQ  22234.91667824 -.01059610  00000-0 -24416-1 0  9999,2 52868  53.2175  78.4610 0001353  50.8259 295.9757 15.44977028 10924,6809.583000000001,93.205,432.369,430.526,0.0
52868.0,STARLINK-4261,PAYLOAD,2022-08-23 14:00:01,15.43455241,0.0001319,53.2175,75.3053,61.7159,33.2719,-0.025582,-0.01054405,0.0,0 STARLINK-4261,1 52868U 22062AQ  22235.58334491 -.01054405  00000-0 -25582-1 0  9996,2 52868  53.2175  75.3053 0001319  61.7159  33.2719 15.43455241  1303,6814.058000000001,93.297,436.822,435.024,0.0
52868.0,STARLINK-4261,PAYLOAD,2022-08-23 20:00:01,15.42887724,0.000135,53.2174,74.1263,52.7021,351.9117,-0.0261829999999999,-0.01073047,0.0,0 STARLINK-4261,1 52868U 22062AQ  22235.83334491 -.01073047  00000-0 -26183-1 0  9995,2 52868  53.2174  74.1263 0001350  52.7021 351.9117 15.42887724 11065,6815.729,93.331,438.514,436.674,0.0
52868.0,STARLINK-4261,PAYLOAD,2022-08-23 22:00:01,15.42696361,0.000151,53.2176,73.7333,55.32100000000001,92.4527,-0.026275,-0.01070156,0.0,0 STARLINK-4261,1 52868U 22062AQ  22235.91668981 -.01070156  00000-0 -26275-1 0  9998,2 52868  53.2176  73.7333 0001510  55.3210  92.4527 15.42696361  1300,6816.292,93.343,439.187,437.128,0.0
52868.0,STARLINK-4261,PAYLOAD,2022-08-24 14:00:01,15.41177293,0.0001374,53.2176,70.5887,65.3183,185.0998,-0.027623,-0.01069072,0.0,0 STARLINK-4261,1 52868U 22062AQ  22236.58334491 -.01069072  00000-0 -27623-1 0  9991,2 52868  53.2176  70.5887 0001374  65.3183 185.0998 15.41177293  1305,6820.771,93.435,443.573,441.698,0.0
52868.0,STARLINK-4261,PAYLOAD,2022-08-24 22:00:00,15.40417989,0.0001302,53.2177,69.0219,63.5006,236.9015,-0.028355,-0.01069853,0.0,0 STARLINK-4261,1 52868U 22062AQ  22236.91667824 -.01069853  00000-0 -28355-1 0  9997,2 52868  53.2177  69.0219 0001302  63.5006 236.9015 15.40417989 11230,6823.012,93.481,445.765,443.98800000000006,0.0
52868.0,STARLINK-4261,PAYLOAD,2022-08-25 14:00:01,15.38898868,0.0001326,53.2177,65.8884,52.9496,344.6855,-0.029806,-0.01069453,0.0,0 STARLINK-4261,1 52868U 22062AQ  22237.58334491 -.01069453  00000-0 -29806-1 0  9990,2 52868  53.2177  65.8884 0001326  52.9496 344.6855 15.38898868  1305,6827.501,93.573,450.272,448.461,0.0
52868.0,STARLINK-4261,PAYLOAD,2022-08-25 22:00:00,15.38138547,0.0001436,53.2176,64.3268,51.9094,32.9722,-0.0305329999999999,-0.01068597,0.0,0 STARLINK-4261,1 52868U 22062AQ  22237.91667824 -.01068597  00000-0 -30533-1 0  9993,2 52868  53.2176  64.3268 0001436  51.9094  32.9722 15.38138547 11389,6829.751,93.62,452.597,450.635,0.0
52868.0,STARLINK-4261,PAYLOAD,2022-08-26 14:00:01,15.36618736,0.0001546,53.2179,61.2041,55.0227,121.68,-0.032017,-0.01066536,0.0,0 STARLINK-4261,1 52868U 22062AQ  22238.58335648 -.01066536  00000-0 -32017-1 0  9993,2 52868  53.2179  61.2041 0001546  55.0227 121.6800 15.36618736  1307,6834.254,93.712,457.175,455.062,0.0
52868.0,STARLINK-4261,PAYLOAD,2022-08-26 20:00:01,15.36050993,0.0001425,53.2176,60.0367,62.8226,57.2821,-0.032721,-0.01069804,0.0,0 STARLINK-4261,1 52868U 22062AQ  22238.83334491 -.01069804  00000-0 -32721-1 0  9999,2 52868  53.2176  60.0367 0001425  62.8226  57.2821 15.36050993 11520,6835.938,93.747,458.777,456.828,0.0
52868.0,STARLINK-4261,PAYLOAD,2022-08-26 22:00:00,15.35857754,0.0001412,53.2176,59.6479,67.8224,153.3248,-0.032724,-0.01063764,0.0,0 STARLINK-4261,1 52868U 22062AQ  22238.91667824 -.01063764  00000-0 -32724-1 0  9999,2 52868  53.2176  59.6479 0001412  67.8224 153.3248 15.35857754  1302,6836.511,93.759,459.341,457.411,0.0
52868.0,STARLINK-4261,PAYLOAD,2022-08-27 14:00:01,15.343415099999998,0.0001325,53.2177,56.536,59.1949,248.2321,-0.034506,-0.01067949,0.0,0 STARLINK-4261,1 52868U 22062AQ  22239.58334491 -.01067949  00000-0 -34506-1 0  9993,2 52868  53.2177  56.5360 0001325  59.1949 248.2321 15.34341510  1302,6841.014,93.851,463.786,461.973,0.0
52868.0,STARLINK-4261,PAYLOAD,2022-08-27 22:00:00,15.335804500000002,0.0001197,53.2175,54.9851,68.5131,280.6846,-0.035268,-0.0106553,0.0,0 STARLINK-4261,1 52868U 22062AQ  22239.91667824 -.01065530  00000-0 -35268-1 0  9999,2 52868  53.2175  54.9851 0001197  68.5131 280.6846 15.33580450  1300,6843.276999999999,93.898,465.961,464.323,0.0
52868.0,STARLINK-4261,PAYLOAD,2022-08-28 14:00:01,15.320634,0.0001381,53.2175,51.8842,54.3198,15.6822,-0.037132,-0.0106895,0.0,0 STARLINK-4261,1 52868U 22062AQ  22240.58334491 -.01068950  00000-0 -37132-1 0  9996,2 52868  53.2175  51.8842 0001381  54.3198  15.6822 15.32063400  1307,6847.794,93.991,470.605,468.713,0.0
52868.0,STARLINK-4261,PAYLOAD,2022-08-28 22:00:00,15.3129927,0.0001351,53.2173,50.3385,62.9833,46.0527,-0.037736,-0.01061217,0.0,0 STARLINK-4261,1 52868U 22062AQ  22240.91667824 -.01061217  00000-0 -37736-1 0  9991,2 52868  53.2173  50.3385 0001351  62.9833  46.0527 15.31299270 11844,6850.071999999999,94.038,472.862,471.011,0.0
52868.0,STARLINK-4261,PAYLOAD,2022-08-29 14:00:01,15.29782888,0.00015,53.2176,47.2484,61.3165,123.0472,-0.03973,-0.01065295,0.0,0 STARLINK-4261,1 52868U 22062AQ  22241.58334491 -.01065295  00000-0 -39730-1 0  9992,2 52868  53.2176  47.2484 0001500  61.3165 123.0472 15.29782888  1303,6854.598000000001,94.131,477.491,475.435,0.0
52868.0,STARLINK-4261,PAYLOAD,2022-08-29 16:00:00,15.29621301,0.0001309,53.2174,46.8617,69.5418,213.9668,-0.041424,-0.01101757,0.0,0 STARLINK-4261,1 52868U 22062AQ  22241.66667824 -.01101757  00000-0 -41424-1 0  9997,2 52868  53.2174  46.8617 0001309  69.5418 213.9668 15.29621301 11963,6855.081,94.141,477.843,476.048,0.0
